start=new Date('2022-04-20T00:00:00.000Z').valueOf();
sats=[{"PERIAPSIS":"546.028","MEAN_ANOMALY":"301.5693","MEAN_MOTION":"15.06423741","SEMIMAJOR_AXIS":"6925.276","COUNTRY_CODE":"US","DECAY_DATE":null,"CLASSIFICATION_TYPE":"U","EPOCH":"2022-04-19T11:54:10.651968","BSTAR":"0.00059416000000","APOAPSIS":"548.254","TIME_SYSTEM":"UTC","CENTER_NAME":"EARTH","OBJECT_ID":"2020-006E","REF_FRAME":"TEME","TLE_LINE1":"1 45048U 20006E   22109.49595662  .00008585  00000-0  59416-3 0  9993","RA_OF_ASC_NODE":"182.1076","OBJECT_TYPE":"PAYLOAD","OBJECT_NAME":"STARLINK-1134","ARG_OF_PERICENTER":"58.5452","GP_ID":"201625088","INCLINATION":"53.0526","REV_AT_EPOCH":"12240","ECCENTRICITY":"0.00016070","ELEMENT_SET_NO":"999","TLE_LINE2":"2 45048  53.0526 182.1076 0001607  58.5452 301.5693 15.06423741122401","NORAD_CAT_ID":"45048","RCS_SIZE":"LARGE","EPHEMERIS_TYPE":"0","FILE":"3408368","SITE":"AFETR","MEAN_MOTION_DOT":"0.00008585","MEAN_ELEMENT_THEORY":"SGP4","PERIOD":"95.591","LAUNCH_DATE":"2020-01-29","MEAN_MOTION_DDOT":"0.0000000000000"},{"MEAN_MOTION_DDOT":"0.0000000000000","LAUNCH_DATE":"2020-01-29","MEAN_ELEMENT_THEORY":"SGP4","PERIOD":"95.469","MEAN_MOTION_DOT":"0.00002915","RCS_SIZE":"LARGE","FILE":"3408368","SITE":"AFETR","EPHEMERIS_TYPE":"0","ECCENTRICITY":"0.00011830","TLE_LINE2":"2 45049  53.0536 181.5497 0001183 144.5249 215.5820 15.08337776122413","ELEMENT_SET_NO":"999","NORAD_CAT_ID":"45049","REV_AT_EPOCH":"12241","GP_ID":"201625840","INCLINATION":"53.0536","ARG_OF_PERICENTER":"144.5249","REF_FRAME":"TEME","OBJECT_NAME":"STARLINK-1135","TLE_LINE1":"1 45049U 20006F   22109.52210282  .00002915  00000-0  20387-3 0  9996","RA_OF_ASC_NODE":"181.5497","OBJECT_TYPE":"PAYLOAD","TIME_SYSTEM":"UTC","APOAPSIS":"542.099","OBJECT_ID":"2020-006F","CENTER_NAME":"EARTH","BSTAR":"0.00020387000000","EPOCH":"2022-04-19T12:31:49.683648","CLASSIFICATION_TYPE":"U","COUNTRY_CODE":"US","SEMIMAJOR_AXIS":"6919.416","DECAY_DATE":null,"MEAN_ANOMALY":"215.5820","MEAN_MOTION":"15.08337776","PERIAPSIS":"540.462"},{"CLASSIFICATION_TYPE":"U","COUNTRY_CODE":"US","SEMIMAJOR_AXIS":"6925.310","DECAY_DATE":null,"MEAN_ANOMALY":"307.1629","MEAN_MOTION":"15.06412608","PERIAPSIS":"546.032","ARG_OF_PERICENTER":"52.9511","REF_FRAME":"TEME","OBJECT_NAME":"STARLINK-1140","RA_OF_ASC_NODE":"181.7625","TLE_LINE1":"1 45050U 20006G   22109.57336824  .00007414  00000-0  51590-3 0  9993","OBJECT_TYPE":"PAYLOAD","APOAPSIS":"548.318","TIME_SYSTEM":"UTC","OBJECT_ID":"2020-006G","CENTER_NAME":"EARTH","BSTAR":"0.00051590000000","EPOCH":"2022-04-19T13:45:39.015936","RCS_SIZE":"LARGE","FILE":"3408368","EPHEMERIS_TYPE":"0","SITE":"AFETR","ECCENTRICITY":"0.00016500","TLE_LINE2":"2 45050  53.0524 181.7625 0001650  52.9511 307.1629 15.06412608122411","NORAD_CAT_ID":"45050","ELEMENT_SET_NO":"999","REV_AT_EPOCH":"12241","GP_ID":"201625590","INCLINATION":"53.0524","MEAN_MOTION_DDOT":"0.0000000000000","LAUNCH_DATE":"2020-01-29","MEAN_ELEMENT_THEORY":"SGP4","PERIOD":"95.591","MEAN_MOTION_DOT":"0.00007414"},{"MEAN_MOTION":"15.10324475","MEAN_ANOMALY":"336.1268","PERIAPSIS":"534.185","CLASSIFICATION_TYPE":"U","DECAY_DATE":null,"COUNTRY_CODE":"US","SEMIMAJOR_AXIS":"6913.347","OBJECT_ID":"2020-006H","CENTER_NAME":"EARTH","TIME_SYSTEM":"UTC","APOAPSIS":"536.238","BSTAR":"0.00104780000000","EPOCH":"2022-04-19T14:00:17.347104","ARG_OF_PERICENTER":"23.9791","OBJECT_NAME":"STARLINK-1141","TLE_LINE1":"1 45051U 20006H   22109.58353411  .00017122  00000-0  10478-2 0  9992","RA_OF_ASC_NODE":"179.7535","OBJECT_TYPE":"PAYLOAD","REF_FRAME":"TEME","REV_AT_EPOCH":"12244","GP_ID":"201624338","INCLINATION":"53.0498","SITE":"AFETR","FILE":"3408368","EPHEMERIS_TYPE":"0","RCS_SIZE":"LARGE","TLE_LINE2":"2 45051  53.0498 179.7535 0001485  23.9791 336.1268 15.10324475122446","ELEMENT_SET_NO":"999","NORAD_CAT_ID":"45051","ECCENTRICITY":"0.00014850","PERIOD":"95.344","MEAN_ELEMENT_THEORY":"SGP4","MEAN_MOTION_DOT":"0.00017122","MEAN_MOTION_DDOT":"0.0000000000000","LAUNCH_DATE":"2020-01-29"},{"MEAN_MOTION_DDOT":"0.0000000000000","LAUNCH_DATE":"2020-01-29","MEAN_MOTION_DOT":"0.00019667","PERIOD":"95.590","MEAN_ELEMENT_THEORY":"SGP4","ELEMENT_SET_NO":"999","TLE_LINE2":"2 45052  53.0518 181.7326 0001551  58.4576 301.6564 15.06428785122416","NORAD_CAT_ID":"45052","ECCENTRICITY":"0.00015510","FILE":"3408368","EPHEMERIS_TYPE":"0","SITE":"AFETR","RCS_SIZE":"LARGE","GP_ID":"201624588","INCLINATION":"53.0518","REV_AT_EPOCH":"12241","OBJECT_NAME":"STARLINK-1148","RA_OF_ASC_NODE":"181.7326","TLE_LINE1":"1 45052U 20006J   22109.58073786  .00019667  00000-0  13345-2 0  9999","OBJECT_TYPE":"PAYLOAD","REF_FRAME":"TEME","ARG_OF_PERICENTER":"58.4576","BSTAR":"0.00133450000000","EPOCH":"2022-04-19T13:56:15.751104","OBJECT_ID":"2020-006J","CENTER_NAME":"EARTH","TIME_SYSTEM":"UTC","APOAPSIS":"548.199","DECAY_DATE":null,"COUNTRY_CODE":"US","SEMIMAJOR_AXIS":"6925.260","CLASSIFICATION_TYPE":"U","PERIAPSIS":"546.051","MEAN_MOTION":"15.06428785","MEAN_ANOMALY":"301.6564"},{"OBJECT_ID":"2020-006K","CENTER_NAME":"EARTH","TIME_SYSTEM":"UTC","APOAPSIS":"533.878","BSTAR":"0.00126410000000","EPOCH":"2022-04-19T12:49:20.785440","ARG_OF_PERICENTER":"45.3594","OBJECT_NAME":"STARLINK-1155","TLE_LINE1":"1 45053U 20006K   22109.53426835  .00021186  00000-0  12641-2 0  9999","OBJECT_TYPE":"PAYLOAD","RA_OF_ASC_NODE":"176.5103","REF_FRAME":"TEME","MEAN_MOTION":"15.11107041","MEAN_ANOMALY":"314.7520","PERIAPSIS":"531.771","CLASSIFICATION_TYPE":"U","DECAY_DATE":null,"COUNTRY_CODE":"US","SEMIMAJOR_AXIS":"6910.960","PERIOD":"95.294","MEAN_ELEMENT_THEORY":"SGP4","MEAN_MOTION_DOT":"0.00021186","MEAN_MOTION_DDOT":"0.0000000000000","LAUNCH_DATE":"2020-01-29","REV_AT_EPOCH":"12245","INCLINATION":"53.0002","GP_ID":"201625340","EPHEMERIS_TYPE":"0","FILE":"3408368","SITE":"AFETR","RCS_SIZE":"LARGE","NORAD_CAT_ID":"45053","TLE_LINE2":"2 45053  53.0002 176.5103 0001524  45.3594 314.7520 15.11107041122451","ELEMENT_SET_NO":"999","ECCENTRICITY":"0.00015240"},{"SEMIMAJOR_AXIS":"6925.346","COUNTRY_CODE":"US","DECAY_DATE":null,"CLASSIFICATION_TYPE":"U","PERIAPSIS":"546.004","MEAN_ANOMALY":"308.1991","MEAN_MOTION":"15.06400851","REF_FRAME":"TEME","RA_OF_ASC_NODE":"181.7638","TLE_LINE1":"1 45054U 20006L   22109.57703927  .00002233  00000-0  16876-3 0  9991","OBJECT_TYPE":"PAYLOAD","OBJECT_NAME":"STARLINK-1156","ARG_OF_PERICENTER":"51.9155","EPOCH":"2022-04-19T13:50:56.192928","BSTAR":"0.00016876000000","APOAPSIS":"548.418","TIME_SYSTEM":"UTC","CENTER_NAME":"EARTH","OBJECT_ID":"2020-006L","ECCENTRICITY":"0.00017430","TLE_LINE2":"2 45054  53.0518 181.7638 0001743  51.9155 308.1991 15.06400851122418","ELEMENT_SET_NO":"999","NORAD_CAT_ID":"45054","RCS_SIZE":"LARGE","SITE":"AFETR","FILE":"3408368","EPHEMERIS_TYPE":"0","GP_ID":"201626091","INCLINATION":"53.0518","REV_AT_EPOCH":"12241","LAUNCH_DATE":"2020-01-29","MEAN_MOTION_DDOT":"0.0000000000000","MEAN_MOTION_DOT":"0.00002233","MEAN_ELEMENT_THEORY":"SGP4","PERIOD":"95.592"},{"MEAN_ELEMENT_THEORY":"SGP4","PERIOD":"95.591","MEAN_MOTION_DOT":"0.00006299","LAUNCH_DATE":"2020-01-29","MEAN_MOTION_DDOT":"0.0000000000000","REV_AT_EPOCH":"12241","INCLINATION":"53.0523","GP_ID":"201624839","RCS_SIZE":"LARGE","EPHEMERIS_TYPE":"0","FILE":"3408368","SITE":"AFETR","ECCENTRICITY":"0.00016150","TLE_LINE2":"2 45057  53.0523 181.9694 0001615  60.5033 299.6117 15.06413049122417","ELEMENT_SET_NO":"999","NORAD_CAT_ID":"45057","TIME_SYSTEM":"UTC","APOAPSIS":"548.292","CENTER_NAME":"EARTH","OBJECT_ID":"2020-006P","EPOCH":"2022-04-19T12:36:38.510208","BSTAR":"0.00044125000000","ARG_OF_PERICENTER":"60.5033","REF_FRAME":"TEME","TLE_LINE1":"1 45057U 20006P   22109.52544572  .00006299  00000-0  44125-3 0  9992","RA_OF_ASC_NODE":"181.9694","OBJECT_TYPE":"PAYLOAD","OBJECT_NAME":"STARLINK-1159","MEAN_ANOMALY":"299.6117","MEAN_MOTION":"15.06413049","PERIAPSIS":"546.055","CLASSIFICATION_TYPE":"U","SEMIMAJOR_AXIS":"6925.309","COUNTRY_CODE":"US","DECAY_DATE":null},{"ARG_OF_PERICENTER":"55.6879","REF_FRAME":"TEME","OBJECT_TYPE":"PAYLOAD","TLE_LINE1":"1 45058U 20006Q   22109.51806986  .00014522  00000-0  99125-3 0  9990","RA_OF_ASC_NODE":"182.0099","OBJECT_NAME":"STARLINK-1162","APOAPSIS":"548.335","TIME_SYSTEM":"UTC","CENTER_NAME":"EARTH","OBJECT_ID":"2020-006Q","EPOCH":"2022-04-19T12:26:01.235904","BSTAR":"0.00099125000000","CLASSIFICATION_TYPE":"U","SEMIMAJOR_AXIS":"6925.283","COUNTRY_CODE":"US","DECAY_DATE":null,"MEAN_ANOMALY":"304.4273","MEAN_MOTION":"15.06421525","PERIAPSIS":"545.960","LAUNCH_DATE":"2020-01-29","MEAN_MOTION_DDOT":"0.0000000000000","MEAN_ELEMENT_THEORY":"SGP4","PERIOD":"95.591","MEAN_MOTION_DOT":"0.00014522","RCS_SIZE":"LARGE","FILE":"3408368","EPHEMERIS_TYPE":"0","SITE":"AFETR","ECCENTRICITY":"0.00017150","TLE_LINE2":"2 45058  53.0512 182.0099 0001715  55.6879 304.4273 15.06421525122417","NORAD_CAT_ID":"45058","ELEMENT_SET_NO":"999","REV_AT_EPOCH":"12241","INCLINATION":"53.0512","GP_ID":"201625089"},{"ARG_OF_PERICENTER":"61.5379","REF_FRAME":"TEME","TLE_LINE1":"1 45059U 20006R   22109.54018054  .00003984  00000-0  28611-3 0  9997","OBJECT_TYPE":"PAYLOAD","RA_OF_ASC_NODE":"181.9243","OBJECT_NAME":"STARLINK-1165","TIME_SYSTEM":"UTC","APOAPSIS":"548.326","CENTER_NAME":"EARTH","OBJECT_ID":"2020-006R","EPOCH":"2022-04-19T12:57:51.598656","BSTAR":"0.00028611000000","CLASSIFICATION_TYPE":"U","SEMIMAJOR_AXIS":"6925.314","COUNTRY_CODE":"US","DECAY_DATE":null,"MEAN_ANOMALY":"298.5776","MEAN_MOTION":"15.06411200","PERIAPSIS":"546.032","LAUNCH_DATE":"2020-01-29","MEAN_MOTION_DDOT":"0.0000000000000","MEAN_ELEMENT_THEORY":"SGP4","PERIOD":"95.591","MEAN_MOTION_DOT":"0.00003984","RCS_SIZE":"LARGE","SITE":"AFETR","FILE":"3408368","EPHEMERIS_TYPE":"0","ECCENTRICITY":"0.00016560","ELEMENT_SET_NO":"999","TLE_LINE2":"2 45059  53.0537 181.9243 0001656  61.5379 298.5776 15.06411200122419","NORAD_CAT_ID":"45059","REV_AT_EPOCH":"12241","GP_ID":"201625841","INCLINATION":"53.0537"}];
